CCSDS_OMM_VERS = 2.0
CREATION_DATE  = 
ORIGINATOR     = 

OBJECT_NAME    = ALOS (DAICHI)
OBJECT_ID      = 2006-002A
CENTER_NAME    = EARTH
REF_FRAME      = TEME
TIME_SYSTEM    = UTC
MEAN_ELEMENT_THEORY = SGP/SGP4

EPOCH          = 2026-01-05T14:16:48.612576
MEAN_MOTION    = 14.69578072
ECCENTRICITY   = .0002014
INCLINATION    = 98.1128
RA_OF_ASC_NODE = 321.9191
ARG_OF_PERICENTER = 101.4176
MEAN_ANOMALY   = 258.7256

EPHEMERIS_TYPE = 0
CLASSIFICATION_TYPE = U
NORAD_CAT_ID   = 28931
ELEMENT_SET_NO = 999
REV_AT_EPOCH   = 6421
BSTAR          = .36611479E-3
MEAN_MOTION_DOT = .2125E-4
MEAN_MOTION_DDOT = 0

CCSDS_OMM_VERS = 2.0
CREATION_DATE  = 
ORIGINATOR     = 

OBJECT_NAME    = H-2A R/B
OBJECT_ID      = 2006-002B
CENTER_NAME    = EARTH
REF_FRAME      = TEME
TIME_SYSTEM    = UTC
MEAN_ELEMENT_THEORY = SGP/SGP4

EPOCH          = 2026-01-09T15:50:12.172704
MEAN_MOTION    = 15.15217197
ECCENTRICITY   = .00546412
INCLINATION    = 98.2334
RA_OF_ASC_NODE = 151.7046
ARG_OF_PERICENTER = 82.3382
MEAN_ANOMALY   = 278.4049

EPHEMERIS_TYPE = 0
CLASSIFICATION_TYPE = U
NORAD_CAT_ID   = 28932
ELEMENT_SET_NO = 999
REV_AT_EPOCH   = 8549
BSTAR          = .49590513E-3
MEAN_MOTION_DOT = .9598E-4
MEAN_MOTION_DDOT = 0

CCSDS_OMM_VERS = 2.0
CREATION_DATE  = 
ORIGINATOR     = 

OBJECT_NAME    = RESURS-DK 1
OBJECT_ID      = 2006-021A
CENTER_NAME    = EARTH
REF_FRAME      = TEME
TIME_SYSTEM    = UTC
MEAN_ELEMENT_THEORY = SGP/SGP4

EPOCH          = 2026-01-09T11:30:04.080960
MEAN_MOTION    = 15.12352176
ECCENTRICITY   = .00064268
INCLINATION    = 69.9341
RA_OF_ASC_NODE = 30.1389
ARG_OF_PERICENTER = 235.9514
MEAN_ANOMALY   = 124.1042

EPHEMERIS_TYPE = 0
CLASSIFICATION_TYPE = U
NORAD_CAT_ID   = 29228
ELEMENT_SET_NO = 999
REV_AT_EPOCH   = 7857
BSTAR          = .16676541E-3
MEAN_MOTION_DOT = .2792E-4
MEAN_MOTION_DDOT = 0

CCSDS_OMM_VERS = 2.0
CREATION_DATE  = 
ORIGINATOR     = 

OBJECT_NAME    = CZ-4B R/B
OBJECT_ID      = 2006-046C
CENTER_NAME    = EARTH
REF_FRAME      = TEME
TIME_SYSTEM    = UTC
MEAN_ELEMENT_THEORY = SGP/SGP4

EPOCH          = 2026-01-09T14:56:47.813568
MEAN_MOTION    = 15.16207378
ECCENTRICITY   = .00352077
INCLINATION    = 97.5698
RA_OF_ASC_NODE = 54.6856
ARG_OF_PERICENTER = 111.3368
MEAN_ANOMALY   = 249.1629

EPHEMERIS_TYPE = 0
CLASSIFICATION_TYPE = U
NORAD_CAT_ID   = 29507
ELEMENT_SET_NO = 999
REV_AT_EPOCH   = 5109
BSTAR          = .25797974E-3
MEAN_MOTION_DOT = .4993E-4
MEAN_MOTION_DDOT = 0

CCSDS_OMM_VERS = 2.0
CREATION_DATE  = 
ORIGINATOR     = 

OBJECT_NAME    = CZ-2C R/B
OBJECT_ID      = 2007-010B
CENTER_NAME    = EARTH
REF_FRAME      = TEME
TIME_SYSTEM    = UTC
MEAN_ELEMENT_THEORY = SGP/SGP4

EPOCH          = 2026-01-09T13:08:10.500864
MEAN_MOTION    = 14.20223203
ECCENTRICITY   = .00600868
INCLINATION    = 98.3972
RA_OF_ASC_NODE = 125.7991
ARG_OF_PERICENTER = 105.9994
MEAN_ANOMALY   = 254.7814

EPHEMERIS_TYPE = 0
CLASSIFICATION_TYPE = U
NORAD_CAT_ID   = 31114
ELEMENT_SET_NO = 999
REV_AT_EPOCH   = 97132
BSTAR          = .89629971E-4
MEAN_MOTION_DOT = .155E-5
MEAN_MOTION_DDOT = 0

CCSDS_OMM_VERS = 2.0
CREATION_DATE  = 
ORIGINATOR     = 

OBJECT_NAME    = COSMO-SKYMED 1
OBJECT_ID      = 2007-023A
CENTER_NAME    = EARTH
REF_FRAME      = TEME
TIME_SYSTEM    = UTC
MEAN_ELEMENT_THEORY = SGP/SGP4

EPOCH          = 2026-01-09T14:45:39.366144
MEAN_MOTION    = 14.96023525
ECCENTRICITY   = .00016029
INCLINATION    = 97.8850
RA_OF_ASC_NODE = 200.2019
ARG_OF_PERICENTER = 81.3547
MEAN_ANOMALY   = 278.7855

EPHEMERIS_TYPE = 0
CLASSIFICATION_TYPE = U
NORAD_CAT_ID   = 31598
ELEMENT_SET_NO = 999
REV_AT_EPOCH   = 607
BSTAR          = .38996173E-3
MEAN_MOTION_DOT = .4318E-4
MEAN_MOTION_DDOT = 0

CCSDS_OMM_VERS = 2.0
CREATION_DATE  = 
ORIGINATOR     = 

OBJECT_NAME    = COSMOS 2428
OBJECT_ID      = 2007-029A
CENTER_NAME    = EARTH
REF_FRAME      = TEME
TIME_SYSTEM    = UTC
MEAN_ELEMENT_THEORY = SGP/SGP4

EPOCH          = 2026-01-09T15:10:55.404480
MEAN_MOTION    = 14.12905957
ECCENTRICITY   = .00053136
INCLINATION    = 70.9390
RA_OF_ASC_NODE = 327.3160
ARG_OF_PERICENTER = 345.5811
MEAN_ANOMALY   = 14.5158

EPHEMERIS_TYPE = 0
CLASSIFICATION_TYPE = U
NORAD_CAT_ID   = 31792
ELEMENT_SET_NO = 999
REV_AT_EPOCH   = 95575
BSTAR          = .20958062E-3
MEAN_MOTION_DOT = .342E-5
MEAN_MOTION_DDOT = 0

CCSDS_OMM_VERS = 2.0
CREATION_DATE  = 
ORIGINATOR     = 

OBJECT_NAME    = SL-16 R/B
OBJECT_ID      = 2007-029B
CENTER_NAME    = EARTH
REF_FRAME      = TEME
TIME_SYSTEM    = UTC
MEAN_ELEMENT_THEORY = SGP/SGP4

EPOCH          = 2026-01-09T13:12:35.532000
MEAN_MOTION    = 14.14825672
ECCENTRICITY   = .00021916
INCLINATION    = 70.9773
RA_OF_ASC_NODE = 296.6981
ARG_OF_PERICENTER = 273.7701
MEAN_ANOMALY   = 259.3554

EPHEMERIS_TYPE = 0
CLASSIFICATION_TYPE = U
NORAD_CAT_ID   = 31793
ELEMENT_SET_NO = 999
REV_AT_EPOCH   = 95700
BSTAR          = -.34530266E-4
MEAN_MOTION_DOT = -.115E-5
MEAN_MOTION_DDOT = 0

CCSDS_OMM_VERS = 2.0
CREATION_DATE  = 
ORIGINATOR     = 

OBJECT_NAME    = KORONAS-FOTON
OBJECT_ID      = 2009-003A
CENTER_NAME    = EARTH
REF_FRAME      = TEME
TIME_SYSTEM    = UTC
MEAN_ELEMENT_THEORY = SGP/SGP4

EPOCH          = 2026-01-09T09:47:36.101472
MEAN_MOTION    = 15.41811012
ECCENTRICITY   = .00119202
INCLINATION    = 82.4321
RA_OF_ASC_NODE = 337.4228
ARG_OF_PERICENTER = 22.1316
MEAN_ANOMALY   = 338.0443

EPHEMERIS_TYPE = 0
CLASSIFICATION_TYPE = U
NORAD_CAT_ID   = 33504
ELEMENT_SET_NO = 999
REV_AT_EPOCH   = 93660
BSTAR          = .26042863E-3
MEAN_MOTION_DOT = .11094E-3
MEAN_MOTION_DDOT = 0

CCSDS_OMM_VERS = 2.0
CREATION_DATE  = 
ORIGINATOR     = 

OBJECT_NAME    = CZ-2C R/B
OBJECT_ID      = 2011-030B
CENTER_NAME    = EARTH
REF_FRAME      = TEME
TIME_SYSTEM    = UTC
MEAN_ELEMENT_THEORY = SGP/SGP4

EPOCH          = 2026-01-09T15:42:23.711904
MEAN_MOTION    = 14.80999842
ECCENTRICITY   = .00526316
INCLINATION    = 97.8451
RA_OF_ASC_NODE = 328.1506
ARG_OF_PERICENTER = 180.8904
MEAN_ANOMALY   = 352.2269

EPHEMERIS_TYPE = 0
CLASSIFICATION_TYPE = U
NORAD_CAT_ID   = 37731
ELEMENT_SET_NO = 999
REV_AT_EPOCH   = 78135
BSTAR          = .17415104E-3
MEAN_MOTION_DOT = .1327E-4
MEAN_MOTION_DDOT = 0

CCSDS_OMM_VERS = 2.0
CREATION_DATE  = 
ORIGINATOR     = 

OBJECT_NAME    = H-2A R/B
OBJECT_ID      = 2012-025E
CENTER_NAME    = EARTH
REF_FRAME      = TEME
TIME_SYSTEM    = UTC
MEAN_ELEMENT_THEORY = SGP/SGP4

EPOCH          = 2026-01-09T15:00:21.278592
MEAN_MOTION    = 14.94650731
ECCENTRICITY   = .00457603
INCLINATION    = 98.4635
RA_OF_ASC_NODE = 332.0148
ARG_OF_PERICENTER = 144.4493
MEAN_ANOMALY   = 215.9789

EPHEMERIS_TYPE = 0
CLASSIFICATION_TYPE = U
NORAD_CAT_ID   = 38341
ELEMENT_SET_NO = 999
REV_AT_EPOCH   = 73939
BSTAR          = .30290374E-3
MEAN_MOTION_DOT = .3282E-4
MEAN_MOTION_DDOT = 0

CCSDS_OMM_VERS = 2.0
CREATION_DATE  = 
ORIGINATOR     = 

OBJECT_NAME    = SHIJIAN-16 (SJ-16)
OBJECT_ID      = 2013-057A
CENTER_NAME    = EARTH
REF_FRAME      = TEME
TIME_SYSTEM    = UTC
MEAN_ELEMENT_THEORY = SGP/SGP4

EPOCH          = 2026-01-09T15:07:35.918112
MEAN_MOTION    = 14.92121422
ECCENTRICITY   = .0017946
INCLINATION    = 74.9739
RA_OF_ASC_NODE = 296.8775
ARG_OF_PERICENTER = 255.5436
MEAN_ANOMALY   = 104.3761

EPHEMERIS_TYPE = 0
CLASSIFICATION_TYPE = U
NORAD_CAT_ID   = 39358
ELEMENT_SET_NO = 999
REV_AT_EPOCH   = 66269
BSTAR          = .17111367E-3
MEAN_MOTION_DOT = .1716E-4
MEAN_MOTION_DDOT = 0

