ALOS (DAICHI)           
1 28931U 06002A   26005.59500709  .00002125  00000+0  36611-3 0  9998
2 28931  98.1128 321.9191 0002014 101.4176 258.7256 14.69578072 64214
H-2A R/B                
1 28932U 06002B   26009.65986311  .00009598  00000+0  49591-3 0  9999
2 28932  98.2334 151.7046 0054641  82.3382 278.4049 15.15217197 85494
RESURS-DK 1             
1 29228U 06021A   26009.47921390  .00002792  00000+0  16677-3 0  9993
2 29228  69.9341  30.1389 0006426 235.9514 124.1042 15.12352176 78572
CZ-4B R/B               
1 29507U 06046C   26009.62277562  .00004993  00000+0  25798-3 0  9991
2 29507  97.5698  54.6856 0035207 111.3368 249.1629 15.16207378 51091
CZ-2C R/B               
1 31114U 07010B   26009.54734376  .00000155  00000+0  89630-4 0  9994
2 31114  98.3972 125.7991 0060086 105.9994 254.7814 14.20223203971323
COSMO-SKYMED 1          
1 31598U 07023A   26009.61503896  .00004318  00000+0  38996-3 0  9996
2 31598  97.8850 200.2019 0001602  81.3547 278.7855 14.96023525  6078
COSMOS 2428             
1 31792U 07029A   26009.63258570  .00000342  00000+0  20958-3 0  9998
2 31792  70.9390 327.3160 0005313 345.5811  14.5158 14.12905957955751
SL-16 R/B               
1 31793U 07029B   26009.55041125 -.00000115  00000+0 -34530-4 0  9998
2 31793  70.9773 296.6981 0002191 273.7701 259.3554 14.14825672957003
KORONAS-FOTON           
1 33504U 09003A   26009.40805673  .00011094  00000+0  26043-3 0  9999
2 33504  82.4321 337.4228 0011920  22.1316 338.0443 15.41811012936607
CZ-2C R/B               
1 37731U 11030B   26009.65444111  .00001327  00000+0  17415-3 0  9992
2 37731  97.8451 328.1506 0052631 180.8904 352.2269 14.80999842781356
H-2A R/B                
1 38341U 12025E   26009.62524628  .00003282  00000+0  30290-3 0  9992
2 38341  98.4635 332.0148 0045760 144.4493 215.9789 14.94650731739390
SHIJIAN-16 (SJ-16)      
1 39358U 13057A   26009.63027683  .00001716  00000+0  17111-3 0  9994
2 39358  74.9739 296.8775 0017946 255.5436 104.3761 14.92121422662699
